{"fetched_at":"2026-07-09T07:59:47.838Z","source":"https://celestrak.org/NORAD/elements/gp.php?GROUP=spire&FORMAT=JSON","constellation":"spire","records":[{"OBJECT_NAME":"LEMUR-2-HUBBLE-4","OBJECT_ID":"2025-135AP","EPOCH":"2026-07-08T20:15:30.699648","CLASSIFICATION_TYPE":"U","MEAN_MOTION":14.93672147,"ECCENTRICITY":0.00021199,"INCLINATION":97.7714,"RA_OF_ASC_NODE":303.4972,"ARG_OF_PERICENTER":179.8758,"MEAN_ANOMALY":180.2463,"EPHEMERIS_TYPE":0,"NORAD_CAT_ID":64565,"ELEMENT_SET_NO":999,"REV_AT_EPOCH":5710,"BSTAR":0.000099191857,"MEAN_MOTION_DOT":0.00000992,"MEAN_MOTION_DDOT":0},{"OBJECT_NAME":"LEMUR-2-SEJONG-2","OBJECT_ID":"2025-135BL","EPOCH":"2026-07-08T23:09:12.352320","CLASSIFICATION_TYPE":"U","MEAN_MOTION":14.96882583,"ECCENTRICITY":0.00033786,"INCLINATION":97.7703,"RA_OF_ASC_NODE":304.8407,"ARG_OF_PERICENTER":247.169,"MEAN_ANOMALY":112.9175,"EPHEMERIS_TYPE":0,"NORAD_CAT_ID":64586,"ELEMENT_SET_NO":999,"REV_AT_EPOCH":5720,"BSTAR":0.0001803241,"MEAN_MOTION_DOT":0.0000201,"MEAN_MOTION_DDOT":0},{"OBJECT_NAME":"LEMUR-2-HUBBLE-5","OBJECT_ID":"2025-135BT","EPOCH":"2026-07-08T20:31:28.098912","CLASSIFICATION_TYPE":"U","MEAN_MOTION":14.94199595,"ECCENTRICITY":0.00041064,"INCLINATION":97.7734,"RA_OF_ASC_NODE":304.1704,"ARG_OF_PERICENTER":262.4138,"MEAN_ANOMALY":97.6616,"EPHEMERIS_TYPE":0,"NORAD_CAT_ID":64840,"ELEMENT_SET_NO":999,"REV_AT_EPOCH":5714,"BSTAR":0.00012402989,"MEAN_MOTION_DOT":0.00001272,"MEAN_MOTION_DDOT":0},{"OBJECT_NAME":"LEMUR-2-KARENDARRELL","OBJECT_ID":"2025-135BU","EPOCH":"2026-07-08T20:40:04.897056","CLASSIFICATION_TYPE":"U","MEAN_MOTION":15.00440878,"ECCENTRICITY":0.00117501,"INCLINATION":97.7693,"RA_OF_ASC_NODE":306.0385,"ARG_OF_PERICENTER":124.4354,"MEAN_ANOMALY":235.7982,"EPHEMERIS_TYPE":0,"NORAD_CAT_ID":64841,"ELEMENT_SET_NO":999,"REV_AT_EPOCH":5726,"BSTAR":0.00037563629,"MEAN_MOTION_DOT":0.00004672,"MEAN_MOTION_DDOT":0},{"OBJECT_NAME":"LEMUR-2-LUCILLE-ROSE","OBJECT_ID":"2025-135BV","EPOCH":"2026-07-08T13:37:40.842048","CLASSIFICATION_TYPE":"U","MEAN_MOTION":15.00436483,"ECCENTRICITY":0.00139702,"INCLINATION":97.7715,"RA_OF_ASC_NODE":305.7812,"ARG_OF_PERICENTER":209.6508,"MEAN_ANOMALY":150.3925,"EPHEMERIS_TYPE":0,"NORAD_CAT_ID":65403,"ELEMENT_SET_NO":999,"REV_AT_EPOCH":5184,"BSTAR":0.00035526773,"MEAN_MOTION_DOT":0.00004417,"MEAN_MOTION_DDOT":0},{"OBJECT_NAME":"LEMUR-2-AFFIE-WAUWIE","OBJECT_ID":"2025-248C","EPOCH":"2026-07-08T12:07:48.199872","CLASSIFICATION_TYPE":"U","MEAN_MOTION":15.28058168,"ECCENTRICITY":0.00085285,"INCLINATION":45.3917,"RA_OF_ASC_NODE":359.4149,"ARG_OF_PERICENTER":217.2941,"MEAN_ANOMALY":142.7357,"EPHEMERIS_TYPE":0,"NORAD_CAT_ID":66295,"ELEMENT_SET_NO":999,"REV_AT_EPOCH":3785,"BSTAR":0.0005560449,"MEAN_MOTION_DOT":0.00015242,"MEAN_MOTION_DDOT":0},{"OBJECT_NAME":"OTTER SDM","OBJECT_ID":"2025-276N","EPOCH":"2026-07-08T15:30:13.624128","CLASSIFICATION_TYPE":"U","MEAN_MOTION":15.20005374,"ECCENTRICITY":0.00042499,"INCLINATION":97.4202,"RA_OF_ASC_NODE":262.7679,"ARG_OF_PERICENTER":285.4662,"MEAN_ANOMALY":74.6103,"EPHEMERIS_TYPE":0,"NORAD_CAT_ID":66678,"ELEMENT_SET_NO":999,"REV_AT_EPOCH":3367,"BSTAR":0.00020017797,"MEAN_MOTION_DOT":0.00004244,"MEAN_MOTION_DDOT":0},{"OBJECT_NAME":"LEMUR-2-STAS-GORBUK","OBJECT_ID":"2025-276W","EPOCH":"2026-07-08T17:33:27.856224","CLASSIFICATION_TYPE":"U","MEAN_MOTION":15.19615471,"ECCENTRICITY":0.00034361,"INCLINATION":97.4237,"RA_OF_ASC_NODE":262.9047,"ARG_OF_PERICENTER":281.4027,"MEAN_ANOMALY":78.6822,"EPHEMERIS_TYPE":0,"NORAD_CAT_ID":66686,"ELEMENT_SET_NO":999,"REV_AT_EPOCH":3368,"BSTAR":0.00018026999,"MEAN_MOTION_DOT":0.00003772,"MEAN_MOTION_DDOT":0},{"OBJECT_NAME":"LEMUR-2-TEODOR","OBJECT_ID":"2025-276DG","EPOCH":"2026-07-08T18:10:45.537600","CLASSIFICATION_TYPE":"U","MEAN_MOTION":15.2129184,"ECCENTRICITY":0.00023222,"INCLINATION":97.4141,"RA_OF_ASC_NODE":263.1937,"ARG_OF_PERICENTER":94.4026,"MEAN_ANOMALY":265.7475,"EPHEMERIS_TYPE":0,"NORAD_CAT_ID":66768,"ELEMENT_SET_NO":999,"REV_AT_EPOCH":3372,"BSTAR":0.000190704,"MEAN_MOTION_DOT":0.00004196,"MEAN_MOTION_DDOT":0},{"OBJECT_NAME":"LEMUR-2-LAILA","OBJECT_ID":"2025-276DQ","EPOCH":"2026-07-08T17:28:38.742816","CLASSIFICATION_TYPE":"U","MEAN_MOTION":15.21517643,"ECCENTRICITY":0.00028988,"INCLINATION":97.4166,"RA_OF_ASC_NODE":263.2996,"ARG_OF_PERICENTER":104.2252,"MEAN_ANOMALY":255.9306,"EPHEMERIS_TYPE":0,"NORAD_CAT_ID":66776,"ELEMENT_SET_NO":999,"REV_AT_EPOCH":3372,"BSTAR":0.00017456123,"MEAN_MOTION_DOT":0.0000386,"MEAN_MOTION_DDOT":0},{"OBJECT_NAME":"LEMUR-2-CELIJO-SB-PK","OBJECT_ID":"2025-276DW","EPOCH":"2026-07-08T17:10:02.402976","CLASSIFICATION_TYPE":"U","MEAN_MOTION":15.00241883,"ECCENTRICITY":0.00073369,"INCLINATION":97.5199,"RA_OF_ASC_NODE":259.7831,"ARG_OF_PERICENTER":80.2189,"MEAN_ANOMALY":279.9863,"EPHEMERIS_TYPE":0,"NORAD_CAT_ID":66781,"ELEMENT_SET_NO":999,"REV_AT_EPOCH":2585,"BSTAR":0.00032737877,"MEAN_MOTION_DOT":0.00004042,"MEAN_MOTION_DDOT":0},{"OBJECT_NAME":"LEMUR-2-FINNIAN","OBJECT_ID":"2025-276DX","EPOCH":"2026-07-08T00:29:04.740864","CLASSIFICATION_TYPE":"U","MEAN_MOTION":15.00562767,"ECCENTRICITY":0.00079857,"INCLINATION":97.5341,"RA_OF_ASC_NODE":259.3594,"ARG_OF_PERICENTER":26.3338,"MEAN_ANOMALY":333.8291,"EPHEMERIS_TYPE":0,"NORAD_CAT_ID":66782,"ELEMENT_SET_NO":999,"REV_AT_EPOCH":2312,"BSTAR":0.00017772481,"MEAN_MOTION_DOT":0.00002186,"MEAN_MOTION_DDOT":0},{"OBJECT_NAME":"LEMUR-2-STARLIGHT","OBJECT_ID":"2025-276DY","EPOCH":"2026-07-08T17:29:34.133856","CLASSIFICATION_TYPE":"U","MEAN_MOTION":14.9930321,"ECCENTRICITY":0.00147539,"INCLINATION":97.5227,"RA_OF_ASC_NODE":259.631,"ARG_OF_PERICENTER":66.1054,"MEAN_ANOMALY":294.1714,"EPHEMERIS_TYPE":0,"NORAD_CAT_ID":66783,"ELEMENT_SET_NO":999,"REV_AT_EPOCH":3342,"BSTAR":0.00037014259,"MEAN_MOTION_DOT":0.00004473,"MEAN_MOTION_DDOT":0},{"OBJECT_NAME":"LEMUR-2-TARTIFLETTE","OBJECT_ID":"2025-276DZ","EPOCH":"2026-07-08T17:27:10.848096","CLASSIFICATION_TYPE":"U","MEAN_MOTION":14.99291776,"ECCENTRICITY":0.00137838,"INCLINATION":97.5228,"RA_OF_ASC_NODE":259.6372,"ARG_OF_PERICENTER":73.9677,"MEAN_ANOMALY":286.3064,"EPHEMERIS_TYPE":0,"NORAD_CAT_ID":66784,"ELEMENT_SET_NO":999,"REV_AT_EPOCH":3342,"BSTAR":0.00030443008,"MEAN_MOTION_DOT":0.00003667,"MEAN_MOTION_DDOT":0},{"OBJECT_NAME":"LEMUR-2-VUKASIN","OBJECT_ID":"2025-276EA","EPOCH":"2026-07-08T18:28:02.251200","CLASSIFICATION_TYPE":"U","MEAN_MOTION":15.00508276,"ECCENTRICITY":0.00040519,"INCLINATION":97.5244,"RA_OF_ASC_NODE":260.0251,"ARG_OF_PERICENTER":73.4291,"MEAN_ANOMALY":286.7378,"EPHEMERIS_TYPE":0,"NORAD_CAT_ID":66785,"ELEMENT_SET_NO":999,"REV_AT_EPOCH":3338,"BSTAR":0.00027693947,"MEAN_MOTION_DOT":0.00003433,"MEAN_MOTION_DDOT":0},{"OBJECT_NAME":"LEMUR-2-HOTSPUR-TOM","OBJECT_ID":"2025-276EB","EPOCH":"2026-07-08T17:18:31.646304","CLASSIFICATION_TYPE":"U","MEAN_MOTION":14.99199376,"ECCENTRICITY":0.0013879,"INCLINATION":97.5218,"RA_OF_ASC_NODE":259.608,"ARG_OF_PERICENTER":65.1391,"MEAN_ANOMALY":295.1274,"EPHEMERIS_TYPE":0,"NORAD_CAT_ID":66786,"ELEMENT_SET_NO":999,"REV_AT_EPOCH":3335,"BSTAR":0.00032280727,"MEAN_MOTION_DOT":0.00003882,"MEAN_MOTION_DDOT":0}]}
